{
  "type": "FeatureCollection",
  "features": [
    {
      "type": "Feature",
      "properties": {
        "norad_id": 66566,
        "name": "STARLINK-35871",
        "group": "last-30-days",
        "lat": -42.97432890557599,
        "lon": 93.8297743095512,
        "alt_km": 337.963084435014,
        "timestamp": "2025-12-02T06:27:51.802181+00:00",
        "meta_object_name": "STARLINK-35871",
        "meta_object_id": "2025-268K",
        "meta_epoch": "2025-12-01T20:00:01.999008",
        "meta_mean_motion": 15.79597652,
        "meta_eccentricity": 0.0001725,
        "meta_inclination": 42.9965,
        "meta_ra_of_asc_node": 185.956,
        "meta_arg_of_pericenter": 265.5041,
        "meta_mean_anomaly": 43.7658,
        "meta_ephemeris_type": 0,
        "meta_classification_type": "U",
        "meta_norad_cat_id": 66566,
        "meta_element_set_no": 999,
        "meta_rev_at_epoch": 291,
        "meta_bstar": -0.0096949,
        "meta_mean_motion_dot": -0.01595012,
        "meta_mean_motion_ddot": 0,
        "tle_line1": "1 66566U 25268K   25335.83335647 -.01595012  00000+0 -96949-2 0  9992",
        "tle_line2": "2 66566  42.9965 185.9560 0001725 265.5041  43.7658 15.79597652  2919"
      },
      "geometry": {
        "type": "Point",
        "coordinates": [
          93.8297743095512,
          -42.97432890557599
        ]
      }
    },
    {
      "type": "Feature",
      "properties": {
        "norad_id": 66567,
        "name": "STARLINK-35825",
        "group": "last-30-days",
        "lat": -42.926283833956354,
        "lon": 96.65787279779343,
        "alt_km": 338.0266794844629,
        "timestamp": "2025-12-02T06:27:51.802191+00:00",
        "meta_object_name": "STARLINK-35825",
        "meta_object_id": "2025-268L",
        "meta_epoch": "2025-12-01T20:00:01.999008",
        "meta_mean_motion": 15.79566396,
        "meta_eccentricity": 0.0001797,
        "meta_inclination": 42.9966,
        "meta_ra_of_asc_node": 185.9507,
        "meta_arg_of_pericenter": 264.5944,
        "meta_mean_anomaly": 46.8072,
        "meta_ephemeris_type": 0,
        "meta_classification_type": "U",
        "meta_norad_cat_id": 66567,
        "meta_element_set_no": 999,
        "meta_rev_at_epoch": 291,
        "meta_bstar": -0.0097592,
        "meta_mean_motion_dot": -0.01602257,
        "meta_mean_motion_ddot": 0,
        "tle_line1": "1 66567U 25268L   25335.83335647 -.01602257  00000+0 -97592-2 0  9998",
        "tle_line2": "2 66567  42.9966 185.9507 0001797 264.5944  46.8072 15.79566396  2917"
      },
      "geometry": {
        "type": "Point",
        "coordinates": [
          96.65787279779343,
          -42.926283833956354
        ]
      }
    },
    {
      "type": "Feature",
      "properties": {
        "norad_id": 66568,
        "name": "STARLINK-35803",
        "group": "last-30-days",
        "lat": -42.80565655631673,
        "lon": 99.52747270390623,
        "alt_km": 338.33110961586044,
        "timestamp": "2025-12-02T06:27:51.802200+00:00",
        "meta_object_name": "STARLINK-35803",
        "meta_object_id": "2025-268M",
        "meta_epoch": "2025-12-01T20:00:01.999008",
        "meta_mean_motion": 15.79524076,
        "meta_eccentricity": 0.0001559,
        "meta_inclination": 42.9965,
        "meta_ra_of_asc_node": 185.9452,
        "meta_arg_of_pericenter": 267.4671,
        "meta_mean_anomaly": 46.1235,
        "meta_ephemeris_type": 0,
        "meta_classification_type": "U",
        "meta_norad_cat_id": 66568,
        "meta_element_set_no": 999,
        "meta_rev_at_epoch": 291,
        "meta_bstar": -0.0098416,
        "meta_mean_motion_dot": -0.01611079,
        "meta_mean_motion_ddot": 0,
        "tle_line1": "1 66568U 25268M   25335.83335647 -.01611079  00000+0 -98416-2 0  9997",
        "tle_line2": "2 66568  42.9965 185.9452 0001559 267.4671  46.1235 15.79524076  2914"
      },
      "geometry": {
        "type": "Point",
        "coordinates": [
          99.52747270390623,
          -42.80565655631673
        ]
      }
    },
    {
      "type": "Feature",
      "properties": {
        "norad_id": 66569,
        "name": "STARLINK-35835",
        "group": "last-30-days",
        "lat": -42.625702219087195,
        "lon": 102.23051572881081,
        "alt_km": 338.3232074476,
        "timestamp": "2025-12-02T06:27:51.802210+00:00",
        "meta_object_name": "STARLINK-35835",
        "meta_object_id": "2025-268N",
        "meta_epoch": "2025-12-01T20:00:01.999008",
        "meta_mean_motion": 15.79509227,
        "meta_eccentricity": 0.000165,
        "meta_inclination": 42.9966,
        "meta_ra_of_asc_node": 185.94,
        "meta_arg_of_pericenter": 268.92,
        "meta_mean_anomaly": 46.7004,
        "meta_ephemeris_type": 0,
        "meta_classification_type": "U",
        "meta_norad_cat_id": 66569,
        "meta_element_set_no": 999,
        "meta_rev_at_epoch": 291,
        "meta_bstar": -0.0098936,
        "meta_mean_motion_dot": -0.01617568,
        "meta_mean_motion_ddot": 0,
        "tle_line1": "1 66569U 25268N   25335.83335647 -.01617568  00000+0 -98936-2 0  9994",
        "tle_line2": "2 66569  42.9966 185.9400 0001650 268.9200  46.7004 15.79509227  2916"
      },
      "geometry": {
        "type": "Point",
        "coordinates": [
          102.23051572881081,
          -42.625702219087195
        ]
      }
    },
    {
      "type": "Feature",
      "properties": {
        "norad_id": 66570,
        "name": "STARLINK-35834",
        "group": "last-30-days",
        "lat": -42.36777074856859,
        "lon": 105.05664063530419,
        "alt_km": 338.4271466709133,
        "timestamp": "2025-12-02T06:27:51.802222+00:00",
        "meta_object_name": "STARLINK-35834",
        "meta_object_id": "2025-268P",
        "meta_epoch": "2025-12-01T20:00:01.999008",
        "meta_mean_motion": 15.79465683,
        "meta_eccentricity": 0.0001702,
        "meta_inclination": 42.9967,
        "meta_ra_of_asc_node": 185.9346,
        "meta_arg_of_pericenter": 271.728,
        "meta_mean_anomaly": 46.0763,
        "meta_ephemeris_type": 0,
        "meta_classification_type": "U",
        "meta_norad_cat_id": 66570,
        "meta_element_set_no": 999,
        "meta_rev_at_epoch": 291,
        "meta_bstar": -0.00998,
        "meta_mean_motion_dot": -0.01627023,
        "meta_mean_motion_ddot": 0,
        "tle_line1": "1 66570U 25268P   25335.83335647 -.01627023  00000+0 -99800-2 0  9994",
        "tle_line2": "2 66570  42.9967 185.9346 0001702 271.7280  46.0763 15.79465683  2918"
      },
      "geometry": {
        "type": "Point",
        "coordinates": [
          105.05664063530419,
          -42.36777074856859
        ]
      }
    },
    {
      "type": "Feature",
      "properties": {
        "norad_id": 66571,
        "name": "STARLINK-35836",
        "group": "last-30-days",
        "lat": -42.040242491354434,
        "lon": 107.85994204374369,
        "alt_km": 338.63304615878405,
        "timestamp": "2025-12-02T06:27:51.802232+00:00",
        "meta_object_name": "STARLINK-35836",
        "meta_object_id": "2025-268Q",
        "meta_epoch": "2025-12-01T20:00:01.999008",
        "meta_mean_motion": 15.79427936,
        "meta_eccentricity": 0.0001659,
        "meta_inclination": 42.9967,
        "meta_ra_of_asc_node": 185.9291,
        "meta_arg_of_pericenter": 264.2185,
        "meta_mean_anomaly": 55.7629,
        "meta_ephemeris_type": 0,
        "meta_classification_type": "U",
        "meta_norad_cat_id": 66571,
        "meta_element_set_no": 999,
        "meta_rev_at_epoch": 291,
        "meta_bstar": -0.0101,
        "meta_mean_motion_dot": -0.01641456,
        "meta_mean_motion_ddot": 0,
        "tle_line1": "1 66571U 25268Q   25335.83335647 -.01641456  00000+0 -10100-1 0  9996",
        "tle_line2": "2 66571  42.9967 185.9291 0001659 264.2185  55.7629 15.79427936  2917"
      },
      "geometry": {
        "type": "Point",
        "coordinates": [
          107.85994204374369,
          -42.040242491354434
        ]
      }
    },
    {
      "type": "Feature",
      "properties": {
        "norad_id": 66572,
        "name": "STARLINK-35870",
        "group": "last-30-days",
        "lat": -41.64317184506474,
        "lon": 110.6468830825421,
        "alt_km": 338.7570357377326,
        "timestamp": "2025-12-02T06:27:51.802242+00:00",
        "meta_object_name": "STARLINK-35870",
        "meta_object_id": "2025-268R",
        "meta_epoch": "2025-12-01T20:00:01.999008",
        "meta_mean_motion": 15.79376617,
        "meta_eccentricity": 0.0001697,
        "meta_inclination": 42.9972,
        "meta_ra_of_asc_node": 185.924,
        "meta_arg_of_pericenter": 267.0388,
        "meta_mean_anomaly": 55.1521,
        "meta_ephemeris_type": 0,
        "meta_classification_type": "U",
        "meta_norad_cat_id": 66572,
        "meta_element_set_no": 999,
        "meta_rev_at_epoch": 291,
        "meta_bstar": -0.010186,
        "meta_mean_motion_dot": -0.01683823,
        "meta_mean_motion_ddot": 0,
        "tle_line1": "1 66572U 25268R   25335.83335647 -.01683823  00000+0 -10186-1 0  9995",
        "tle_line2": "2 66572  42.9972 185.9240 0001697 267.0388  55.1521 15.79376617  2910"
      },
      "geometry": {
        "type": "Point",
        "coordinates": [
          110.6468830825421,
          -41.64317184506474
        ]
      }
    }
  ]
}